{
  "type": "FeatureCollection",
  "features": [
    {
      "type": "Feature",
      "properties": {
        "norad_id": 33412,
        "name": "COSMO-SKYMED 3",
        "group": "resource",
        "lat": -29.867806236395445,
        "lon": -154.01053756114294,
        "alt_km": 567.4892517017415,
        "timestamp": "2025-12-16T23:36:35.841556+00:00",
        "meta_object_name": "COSMO-SKYMED 3",
        "meta_object_id": "2008-054A",
        "meta_epoch": "2025-12-16T07:47:29.501664",
        "meta_mean_motion": 15.05392338,
        "meta_eccentricity": 0.00163537,
        "meta_inclination": 97.8476,
        "meta_ra_of_asc_node": 200.7764,
        "meta_arg_of_pericenter": 160.7043,
        "meta_mean_anomaly": 199.4806,
        "meta_ephemeris_type": 0,
        "meta_classification_type": "U",
        "meta_norad_cat_id": 33412,
        "meta_element_set_no": 999,
        "meta_rev_at_epoch": 92941,
        "meta_bstar": 0.00027113182,
        "meta_mean_motion_dot": 3.834e-05,
        "meta_mean_motion_ddot": 0,
        "tle_line1": "1 33412U 08054A   25350.32464701  .00003834  00000+0  27113-3 0  9996",
        "tle_line2": "2 33412  97.8476 200.7764 0016353 160.7043 199.4806 15.05392338929412"
      },
      "geometry": {
        "type": "Point",
        "coordinates": [
          -154.01053756114294,
          -29.867806236395445
        ]
      }
    },
    {
      "type": "Feature",
      "properties": {
        "norad_id": 33446,
        "name": "YAOGAN-4",
        "group": "resource",
        "lat": -34.626513007971475,
        "lon": -73.4431324019474,
        "alt_km": 618.1224039453873,
        "timestamp": "2025-12-16T23:36:35.841567+00:00",
        "meta_object_name": "YAOGAN-4",
        "meta_object_id": "2008-061A",
        "meta_epoch": "2025-12-16T07:34:14.077344",
        "meta_mean_motion": 14.82693387,
        "meta_eccentricity": 0.00133535,
        "meta_inclination": 97.9187,
        "meta_ra_of_asc_node": 280.3797,
        "meta_arg_of_pericenter": 310.8993,
        "meta_mean_anomaly": 49.1063,
        "meta_ephemeris_type": 0,
        "meta_classification_type": "U",
        "meta_norad_cat_id": 33446,
        "meta_element_set_no": 999,
        "meta_rev_at_epoch": 91856,
        "meta_bstar": 0.00017752381,
        "meta_mean_motion_dot": 1.38e-05,
        "meta_mean_motion_ddot": 0,
        "tle_line1": "1 33446U 08061A   25350.31544071  .00001380  00000+0  17752-3 0  9991",
        "tle_line2": "2 33446  97.9187 280.3797 0013353 310.8993  49.1063 14.82693387918560"
      },
      "geometry": {
        "type": "Point",
        "coordinates": [
          -73.4431324019474,
          -34.626513007971475
        ]
      }
    },
    {
      "type": "Feature",
      "properties": {
        "norad_id": 33492,
        "name": "GOSAT (IBUKI)",
        "group": "resource",
        "lat": 33.39494329923002,
        "lon": -75.10025970479882,
        "alt_km": 666.4572360004186,
        "timestamp": "2025-12-16T23:36:35.841578+00:00",
        "meta_object_name": "GOSAT (IBUKI)",
        "meta_object_id": "2009-002A",
        "meta_epoch": "2025-12-16T06:34:57.271872",
        "meta_mean_motion": 14.67532853,
        "meta_eccentricity": 9.554e-05,
        "meta_inclination": 98.0769,
        "meta_ra_of_asc_node": 98.8286,
        "meta_arg_of_pericenter": 98.1242,
        "meta_mean_anomaly": 262.0071,
        "meta_ephemeris_type": 0,
        "meta_classification_type": "U",
        "meta_norad_cat_id": 33492,
        "meta_element_set_no": 999,
        "meta_rev_at_epoch": 90463,
        "meta_bstar": 0.00015559262,
        "meta_mean_motion_dot": 8.34e-06,
        "meta_mean_motion_ddot": 0,
        "tle_line1": "1 33492U 09002A   25350.27427398  .00000834  00000+0  15559-3 0  9991",
        "tle_line2": "2 33492  98.0769  98.8286 0000955  98.1242 262.0071 14.67532853904632"
      },
      "geometry": {
        "type": "Point",
        "coordinates": [
          -75.10025970479882,
          33.39494329923002
        ]
      }
    },
    {
      "type": "Feature",
      "properties": {
        "norad_id": 35681,
        "name": "DEIMOS-1",
        "group": "resource",
        "lat": -23.092593442391298,
        "lon": 154.7020190604023,
        "alt_km": 650.9011514713029,
        "timestamp": "2025-12-16T23:36:35.841589+00:00",
        "meta_object_name": "DEIMOS-1",
        "meta_object_id": "2009-041A",
        "meta_epoch": "2025-12-16T09:03:43.355232",
        "meta_mean_motion": 14.74960244,
        "meta_eccentricity": 0.00026561,
        "meta_inclination": 97.7145,
        "meta_ra_of_asc_node": 150.8109,
        "meta_arg_of_pericenter": 73.5031,
        "meta_mean_anomaly": 286.647,
        "meta_ephemeris_type": 0,
        "meta_classification_type": "U",
        "meta_norad_cat_id": 35681,
        "meta_element_set_no": 999,
        "meta_rev_at_epoch": 87993,
        "meta_bstar": 0.00014159612,
        "meta_mean_motion_dot": 9.04e-06,
        "meta_mean_motion_ddot": 0,
        "tle_line1": "1 35681U 09041A   25350.37758513  .00000904  00000+0  14160-3 0  9998",
        "tle_line2": "2 35681  97.7145 150.8109 0002656  73.5031 286.6470 14.74960244879930"
      },
      "geometry": {
        "type": "Point",
        "coordinates": [
          154.7020190604023,
          -23.092593442391298
        ]
      }
    },
    {
      "type": "Feature",
      "properties": {
        "norad_id": 35682,
        "name": "DUBAISAT-1",
        "group": "resource",
        "lat": -81.26832470189336,
        "lon": -124.36007710996903,
        "alt_km": 648.1895637665666,
        "timestamp": "2025-12-16T23:36:35.841600+00:00",
        "meta_object_name": "DUBAISAT-1",
        "meta_object_id": "2009-041B",
        "meta_epoch": "2025-12-16T07:44:51.876960",
        "meta_mean_motion": 14.74614048,
        "meta_eccentricity": 0.00094183,
        "meta_inclination": 97.9793,
        "meta_ra_of_asc_node": 120.9498,
        "meta_arg_of_pericenter": 301.8459,
        "meta_mean_anomaly": 58.1832,
        "meta_ephemeris_type": 0,
        "meta_classification_type": "U",
        "meta_norad_cat_id": 35682,
        "meta_element_set_no": 999,
        "meta_rev_at_epoch": 87814,
        "meta_bstar": 0.00019342687,
        "meta_mean_motion_dot": 1.24e-05,
        "meta_mean_motion_ddot": 0,
        "tle_line1": "1 35682U 09041B   25350.32282265  .00001240  00000+0  19343-3 0  9992",
        "tle_line2": "2 35682  97.9793 120.9498 0009418 301.8459  58.1832 14.74614048878149"
      },
      "geometry": {
        "type": "Point",
        "coordinates": [
          -124.36007710996903,
          -81.26832470189336
        ]
      }
    },
    {
      "type": "Feature",
      "properties": {
        "norad_id": 35931,
        "name": "OCEANSAT-2",
        "group": "resource",
        "lat": 19.65072556277484,
        "lon": -11.80554379814882,
        "alt_km": 883.7509192041125,
        "timestamp": "2025-12-16T23:36:35.841611+00:00",
        "meta_object_name": "OCEANSAT-2",
        "meta_object_id": "2009-051A",
        "meta_epoch": "2025-12-16T06:21:30.827232",
        "meta_mean_motion": 13.99623899,
        "meta_eccentricity": 0.00161253,
        "meta_inclination": 98.222,
        "meta_ra_of_asc_node": 350.508,
        "meta_arg_of_pericenter": 35.8282,
        "meta_mean_anomaly": 324.3963,
        "meta_ephemeris_type": 0,
        "meta_classification_type": "U",
        "meta_norad_cat_id": 35931,
        "meta_element_set_no": 999,
        "meta_rev_at_epoch": 85374,
        "meta_bstar": -7.2647916e-05,
        "meta_mean_motion_dot": -1.44e-06,
        "meta_mean_motion_ddot": 0,
        "tle_line1": "1 35931U 09051A   25350.26494013 -.00000144  00000+0 -72648-4 0  9991",
        "tle_line2": "2 35931  98.2220 350.5080 0016125  35.8282 324.3963 13.99623899853746"
      },
      "geometry": {
        "type": "Point",
        "coordinates": [
          -11.80554379814882,
          19.65072556277484
        ]
      }
    },
    {
      "type": "Feature",
      "properties": {
        "norad_id": 35946,
        "name": "WORLDVIEW-2 (WV-2)",
        "group": "resource",
        "lat": 2.515821617436991,
        "lon": 61.63438833057696,
        "alt_km": 766.6732308266974,
        "timestamp": "2025-12-16T23:36:35.841622+00:00",
        "meta_object_name": "WORLDVIEW-2 (WV-2)",
        "meta_object_id": "2009-055A",
        "meta_epoch": "2025-12-16T08:33:56.774304",
        "meta_mean_motion": 14.37725574,
        "meta_eccentricity": 0.00050741,
        "meta_inclination": 98.4786,
        "meta_ra_of_asc_node": 61.3917,
        "meta_arg_of_pericenter": 61.8211,
        "meta_mean_anomaly": 298.3488,
        "meta_ephemeris_type": 0,
        "meta_classification_type": "U",
        "meta_norad_cat_id": 35946,
        "meta_element_set_no": 999,
        "meta_rev_at_epoch": 84937,
        "meta_bstar": 7.3350956e-05,
        "meta_mean_motion_dot": 1.77e-06,
        "meta_mean_motion_ddot": 0,
        "tle_line1": "1 35946U 09055A   25350.35690711  .00000177  00000+0  73351-4 0  9990",
        "tle_line2": "2 35946  98.4786  61.3917 0005074  61.8211 298.3488 14.37725574849371"
      },
      "geometry": {
        "type": "Point",
        "coordinates": [
          61.63438833057696,
          2.515821617436991
        ]
      }
    }
  ]
}